start=new Date('2022-02-18T00:00:00.000Z').valueOf();
sats=[{"REF_FRAME":"TEME","ECCENTRICITY":"0.00016120","CENTER_NAME":"EARTH","COUNTRY_CODE":"US","FILE":"3304735","ELEMENT_SET_NO":"999","TIME_SYSTEM":"UTC","RA_OF_ASC_NODE":"110.5951","MEAN_MOTION_DDOT":"0.0000000000000","OBJECT_TYPE":"PAYLOAD","REV_AT_EPOCH":"6860","TLE_LINE2":"2 47162  53.0542 110.5951 0001612  71.5617 288.5547 15.06413053 68607","DECAY_DATE":null,"OBJECT_ID":"2020-088AS","ARG_OF_PERICENTER":"71.5617","BSTAR":"0.00016553000000","MEAN_MOTION_DOT":"0.00002186","GP_ID":"196207214","INCLINATION":"53.0542","APOAPSIS":"548.290","LAUNCH_DATE":"2020-11-25","TLE_LINE1":"1 47162U 20088AS  22048.57521392  .00002186  00000-0  16553-3 0  9998","MEAN_MOTION":"15.06413053","OBJECT_NAME":"STARLINK-1877","EPOCH":"2022-02-17T13:48:18.482688","PERIAPSIS":"546.057","NORAD_CAT_ID":"47162","CLASSIFICATION_TYPE":"U","MEAN_ANOMALY":"288.5547","PERIOD":"95.591","EPHEMERIS_TYPE":"0","RCS_SIZE":"LARGE","SITE":"AFETR","MEAN_ELEMENT_THEORY":"SGP4","SEMIMAJOR_AXIS":"6925.309"},{"MEAN_MOTION_DDOT":"0.0000000000000","RA_OF_ASC_NODE":"120.1598","DECAY_DATE":null,"TLE_LINE2":"2 47163  53.0491 120.1598 0001216  68.0745 292.0373 15.06407373 68478","REV_AT_EPOCH":"6847","OBJECT_TYPE":"PAYLOAD","CENTER_NAME":"EARTH","COUNTRY_CODE":"US","REF_FRAME":"TEME","ECCENTRICITY":"0.00012160","TIME_SYSTEM":"UTC","ELEMENT_SET_NO":"999","FILE":"3305402","CLASSIFICATION_TYPE":"U","MEAN_ANOMALY":"292.0373","NORAD_CAT_ID":"47163","PERIAPSIS":"546.349","EPOCH":"2022-02-17T16:10:16.599072","OBJECT_NAME":"STARLINK-1878","SEMIMAJOR_AXIS":"6925.326","MEAN_ELEMENT_THEORY":"SGP4","SITE":"AFETR","PERIOD":"95.592","RCS_SIZE":"LARGE","EPHEMERIS_TYPE":"0","MEAN_MOTION_DOT":"0.00001348","OBJECT_ID":"2020-088AT","ARG_OF_PERICENTER":"68.0745","BSTAR":"0.00010938000000","LAUNCH_DATE":"2020-11-25","TLE_LINE1":"1 47163U 20088AT  22048.67380323  .00001348  00000-0  10938-3 0  9997","MEAN_MOTION":"15.06407373","INCLINATION":"53.0491","APOAPSIS":"548.033","GP_ID":"196243571"},{"RA_OF_ASC_NODE":"90.5069","MEAN_MOTION_DDOT":"0.0000000000000","OBJECT_TYPE":"PAYLOAD","REV_AT_EPOCH":"6888","TLE_LINE2":"2 47164  53.0555  90.5069 0001859  50.0475 310.0677 15.06396974 68884","DECAY_DATE":null,"ECCENTRICITY":"0.00018590","REF_FRAME":"TEME","COUNTRY_CODE":"US","CENTER_NAME":"EARTH","ELEMENT_SET_NO":"999","FILE":"3305402","TIME_SYSTEM":"UTC","OBJECT_NAME":"STARLINK-1879","PERIAPSIS":"545.935","EPOCH":"2022-02-17T14:17:29.301792","NORAD_CAT_ID":"47164","MEAN_ANOMALY":"310.0677","CLASSIFICATION_TYPE":"U","RCS_SIZE":"LARGE","EPHEMERIS_TYPE":"0","PERIOD":"95.592","SITE":"AFETR","MEAN_ELEMENT_THEORY":"SGP4","SEMIMAJOR_AXIS":"6925.358","ARG_OF_PERICENTER":"50.0475","OBJECT_ID":"2020-088AU","BSTAR":"-0.00002668200000","MEAN_MOTION_DOT":"-0.00000679","GP_ID":"196243822","INCLINATION":"53.0555","APOAPSIS":"548.510","TLE_LINE1":"1 47164U 20088AU  22048.59547803 -.00000679  00000-0 -26682-4 0  9999","MEAN_MOTION":"15.06396974","LAUNCH_DATE":"2020-11-25"},{"DECAY_DATE":null,"TLE_LINE2":"2 47165  53.0540 109.2863 0001339  71.0495 289.0639 15.06405390 68647","REV_AT_EPOCH":"6864","OBJECT_TYPE":"PAYLOAD","RA_OF_ASC_NODE":"109.2863","MEAN_MOTION_DDOT":"0.0000000000000","TIME_SYSTEM":"UTC","FILE":"3305402","ELEMENT_SET_NO":"999","CENTER_NAME":"EARTH","COUNTRY_CODE":"US","REF_FRAME":"TEME","ECCENTRICITY":"0.00013390","MEAN_ELEMENT_THEORY":"SGP4","SEMIMAJOR_AXIS":"6925.332","PERIOD":"95.592","RCS_SIZE":"LARGE","EPHEMERIS_TYPE":"0","SITE":"AFETR","NORAD_CAT_ID":"47165","CLASSIFICATION_TYPE":"U","MEAN_ANOMALY":"289.0639","OBJECT_NAME":"STARLINK-1880","EPOCH":"2022-02-17T20:47:36.393216","PERIAPSIS":"546.270","LAUNCH_DATE":"2020-11-25","TLE_LINE1":"1 47165U 20088AV  22048.86639344  .00000740  00000-0  68576-4 0  9997","MEAN_MOTION":"15.06405390","GP_ID":"196244072","INCLINATION":"53.0540","APOAPSIS":"548.124","MEAN_MOTION_DOT":"0.00000740","BSTAR":"0.00006857600000","ARG_OF_PERICENTER":"71.0495","OBJECT_ID":"2020-088AV"},{"ARG_OF_PERICENTER":"80.6422","BSTAR":"0.00104110000000","OBJECT_ID":"2020-088AW","MEAN_MOTION_DOT":"0.00037733","APOAPSIS":"456.604","INCLINATION":"53.0504","GP_ID":"196243321","MEAN_MOTION":"15.36751294","TLE_LINE1":"1 47166U 20088AW  22048.73195407  .00037733  00000-0  10411-2 0  9996","LAUNCH_DATE":"2020-11-25","PERIAPSIS":"454.847","EPOCH":"2022-02-17T17:34:00.831648","OBJECT_NAME":"STARLINK-1881","MEAN_ANOMALY":"279.4725","CLASSIFICATION_TYPE":"U","NORAD_CAT_ID":"47166","SITE":"AFETR","RCS_SIZE":"LARGE","EPHEMERIS_TYPE":"0","PERIOD":"93.704","MEAN_ELEMENT_THEORY":"SGP4","SEMIMAJOR_AXIS":"6833.861","ECCENTRICITY":"0.00012850","REF_FRAME":"TEME","COUNTRY_CODE":"US","CENTER_NAME":"EARTH","ELEMENT_SET_NO":"999","FILE":"3305402","TIME_SYSTEM":"UTC","MEAN_MOTION_DDOT":"0.0000000000000","RA_OF_ASC_NODE":"52.1369","OBJECT_TYPE":"PAYLOAD","TLE_LINE2":"2 47166  53.0504  52.1369 0001285  80.6422 279.4725 15.36751294 69449","REV_AT_EPOCH":"6944","DECAY_DATE":null},{"EPOCH":"2022-02-17T20:26:22.481376","PERIAPSIS":"546.946","OBJECT_NAME":"STARLINK-1884","CLASSIFICATION_TYPE":"U","MEAN_ANOMALY":"8.0681","NORAD_CAT_ID":"47167","SITE":"AFETR","PERIOD":"95.591","EPHEMERIS_TYPE":"0","RCS_SIZE":"LARGE","SEMIMAJOR_AXIS":"6925.317","MEAN_ELEMENT_THEORY":"SGP4","BSTAR":"0.00019219000000","OBJECT_ID":"2020-088AX","ARG_OF_PERICENTER":"352.0303","MEAN_MOTION_DOT":"0.00002584","INCLINATION":"53.0526","APOAPSIS":"547.418","GP_ID":"196243071","LAUNCH_DATE":"2020-11-25","MEAN_MOTION":"15.06410244","TLE_LINE1":"1 47167U 20088AX  22048.85164909  .00002584  00000-0  19219-3 0  9995","MEAN_MOTION_DDOT":"0.0000000000000","RA_OF_ASC_NODE":"109.3580","OBJECT_TYPE":"PAYLOAD","REV_AT_EPOCH":"6864","TLE_LINE2":"2 47167  53.0526 109.3580 0000341 352.0303   8.0681 15.06410244 68642","DECAY_DATE":null,"REF_FRAME":"TEME","ECCENTRICITY":"0.00003410","CENTER_NAME":"EARTH","COUNTRY_CODE":"US","FILE":"3305402","ELEMENT_SET_NO":"999","TIME_SYSTEM":"UTC"},{"FILE":"3305402","ELEMENT_SET_NO":"999","TIME_SYSTEM":"UTC","REF_FRAME":"TEME","ECCENTRICITY":"0.00065960","CENTER_NAME":"EARTH","COUNTRY_CODE":"US","OBJECT_TYPE":"PAYLOAD","REV_AT_EPOCH":"6887","TLE_LINE2":"2 47168  53.0536  93.0850 0006596 279.6405  80.3855 15.43796737 68874","DECAY_DATE":null,"MEAN_MOTION_DDOT":"0.0000000000000","RA_OF_ASC_NODE":"93.0850","INCLINATION":"53.0536","APOAPSIS":"439.412","GP_ID":"196244323","LAUNCH_DATE":"2020-11-25","TLE_LINE1":"1 47168U 20088AY  22048.82452341  .00044277  00000-0  96583-3 0  9997","MEAN_MOTION":"15.43796737","ARG_OF_PERICENTER":"279.6405","BSTAR":"0.00096583000000","OBJECT_ID":"2020-088AY","MEAN_MOTION_DOT":"0.00044277","SITE":"AFETR","PERIOD":"93.277","RCS_SIZE":"LARGE","EPHEMERIS_TYPE":"0","MEAN_ELEMENT_THEORY":"SGP4","SEMIMAJOR_AXIS":"6813.053","PERIAPSIS":"430.424","EPOCH":"2022-02-17T19:47:18.822624","OBJECT_NAME":"STARLINK-1885","CLASSIFICATION_TYPE":"U","MEAN_ANOMALY":"80.3855","NORAD_CAT_ID":"47168"},{"GP_ID":"196244573","APOAPSIS":"548.323","INCLINATION":"53.0528","TLE_LINE1":"1 47170U 20088BA  22048.90325379  .00001088  00000-0  91973-4 0  9991","MEAN_MOTION":"15.06392671","LAUNCH_DATE":"2020-11-25","BSTAR":"0.00009197300000","ARG_OF_PERICENTER":"70.6769","OBJECT_ID":"2020-088BA","MEAN_MOTION_DOT":"0.00001088","EPHEMERIS_TYPE":"0","RCS_SIZE":"LARGE","PERIOD":"95.593","SITE":"AFETR","SEMIMAJOR_AXIS":"6925.371","MEAN_ELEMENT_THEORY":"SGP4","OBJECT_NAME":"STARLINK-1887","EPOCH":"2022-02-17T21:40:41.127456","PERIAPSIS":"546.149","NORAD_CAT_ID":"47170","MEAN_ANOMALY":"289.4389","CLASSIFICATION_TYPE":"U","ELEMENT_SET_NO":"999","FILE":"3305402","TIME_SYSTEM":"UTC","ECCENTRICITY":"0.00015700","REF_FRAME":"TEME","COUNTRY_CODE":"US","CENTER_NAME":"EARTH","OBJECT_TYPE":"PAYLOAD","TLE_LINE2":"2 47170  53.0528 109.1267 0001570  70.6769 289.4389 15.06392671 68656","DECAY_DATE":null,"REV_AT_EPOCH":"6865","RA_OF_ASC_NODE":"109.1267","MEAN_MOTION_DDOT":"0.0000000000000"},{"COUNTRY_CODE":"US","CENTER_NAME":"EARTH","ECCENTRICITY":"0.00016520","REF_FRAME":"TEME","TIME_SYSTEM":"UTC","FILE":"3305115","ELEMENT_SET_NO":"999","MEAN_MOTION_DDOT":"0.0000000000000","RA_OF_ASC_NODE":"99.3428","TLE_LINE2":"2 47171  53.0525  99.3428 0001652  59.8376 300.2777 15.06393054 69073","DECAY_DATE":null,"REV_AT_EPOCH":"6907","OBJECT_TYPE":"PAYLOAD","MEAN_MOTION_DOT":"0.00005430","BSTAR":"0.00038325000000","OBJECT_ID":"2020-088BB","ARG_OF_PERICENTER":"59.8376","TLE_LINE1":"1 47171U 20088BB  22048.85627918  .00005430  00000-0  38325-3 0  9996","MEAN_MOTION":"15.06393054","LAUNCH_DATE":"2020-11-25","APOAPSIS":"548.379","INCLINATION":"53.0525","GP_ID":"196216704","MEAN_ANOMALY":"300.2777","CLASSIFICATION_TYPE":"U","NORAD_CAT_ID":"47171","EPOCH":"2022-02-17T20:33:02.521152","PERIAPSIS":"546.091","OBJECT_NAME":"STARLINK-1888","MEAN_ELEMENT_THEORY":"SGP4","SEMIMAJOR_AXIS":"6925.370","SITE":"AFETR","RCS_SIZE":"LARGE","EPHEMERIS_TYPE":"0","PERIOD":"95.593"},{"RA_OF_ASC_NODE":"47.7467","MEAN_MOTION_DDOT":"0.0000000000000","OBJECT_TYPE":"PAYLOAD","TLE_LINE2":"2 47172  53.0475  47.7467 0003596  66.0516 294.0881 15.80894908 69491","DECAY_DATE":null,"REV_AT_EPOCH":"6949","REF_FRAME":"TEME","ECCENTRICITY":"0.00035960","CENTER_NAME":"EARTH","COUNTRY_CODE":"US","ELEMENT_SET_NO":"999","FILE":"3305402","TIME_SYSTEM":"UTC","OBJECT_NAME":"STARLINK-1889","PERIAPSIS":"325.499","EPOCH":"2022-02-17T16:53:05.638272","NORAD_CAT_ID":"47172","CLASSIFICATION_TYPE":"U","MEAN_ANOMALY":"294.0881","PERIOD":"91.088","RCS_SIZE":"LARGE","EPHEMERIS_TYPE":"0","SITE":"AFETR","MEAN_ELEMENT_THEORY":"SGP4","SEMIMAJOR_AXIS":"6706.046","BSTAR":"0.00052618000000","ARG_OF_PERICENTER":"66.0516","OBJECT_ID":"2020-088BC","MEAN_MOTION_DOT":"0.00104566","GP_ID":"196243572","APOAPSIS":"330.322","INCLINATION":"53.0475","LAUNCH_DATE":"2020-11-25","TLE_LINE1":"1 47172U 20088BC  22048.70353748  .00104566  00000-0  52618-3 0  9999","MEAN_MOTION":"15.80894908"}];
